start=new Date('2021-12-30T00:00:00.000Z').valueOf();
sats=[{"FILE":"3254971","TLE_LINE2":"2 45221  53.0554  40.6978 0001518  61.0616 299.0525 15.06404061104607","REF_FRAME":"TEME","OBJECT_TYPE":"PAYLOAD","GP_ID":"192712500","EPOCH":"2021-12-29T10:26:16.217088","ECCENTRICITY":"0.00015180","PERIAPSIS":"546.150","DECAY_DATE":null,"ARG_OF_PERICENTER":"61.0616","MEAN_ANOMALY":"299.0525","OBJECT_NAME":"STARLINK-1189","MEAN_MOTION_DDOT":"0.0000000000000","ELEMENT_SET_NO":"999","COUNTRY_CODE":"US","TIME_SYSTEM":"UTC","MEAN_MOTION_DOT":"0.00002688","MEAN_MOTION":"15.06404061","EPHEMERIS_TYPE":"0","NORAD_CAT_ID":"45221","RCS_SIZE":"LARGE","CLASSIFICATION_TYPE":"U","APOAPSIS":"548.252","SEMIMAJOR_AXIS":"6925.336","INCLINATION":"53.0554","BSTAR":"0.00019928000000","CENTER_NAME":"EARTH","MEAN_ELEMENT_THEORY":"SGP4","REV_AT_EPOCH":"10460","PERIOD":"95.592","OBJECT_ID":"2020-012AV","TLE_LINE1":"1 45221U 20012AV  21363.43490992  .00002688  00000-0  19928-3 0  9990","RA_OF_ASC_NODE":"40.6978","LAUNCH_DATE":"2020-02-17","SITE":"AFETR"},{"EPHEMERIS_TYPE":"0","MEAN_MOTION":"15.06403569","MEAN_MOTION_DOT":"0.00004001","TIME_SYSTEM":"UTC","RCS_SIZE":"LARGE","NORAD_CAT_ID":"45222","MEAN_MOTION_DDOT":"0.0000000000000","COUNTRY_CODE":"US","ELEMENT_SET_NO":"999","OBJECT_NAME":"STARLINK-1191","ARG_OF_PERICENTER":"73.0942","DECAY_DATE":null,"MEAN_ANOMALY":"287.0191","PERIAPSIS":"546.288","GP_ID":"192742289","EPOCH":"2021-12-29T13:47:57.706944","ECCENTRICITY":"0.00013200","REF_FRAME":"TEME","OBJECT_TYPE":"PAYLOAD","FILE":"3255236","TLE_LINE2":"2 45222  53.0554  40.0719 0001320  73.0942 287.0191 15.06403569104621","LAUNCH_DATE":"2020-02-17","SITE":"AFETR","RA_OF_ASC_NODE":"40.0719","REV_AT_EPOCH":"10462","PERIOD":"95.592","MEAN_ELEMENT_THEORY":"SGP4","TLE_LINE1":"1 45222U 20012AW  21363.57497346  .00004001  00000-0  28734-3 0  9992","OBJECT_ID":"2020-012AW","CENTER_NAME":"EARTH","BSTAR":"0.00028734000000","INCLINATION":"53.0554","SEMIMAJOR_AXIS":"6925.338","CLASSIFICATION_TYPE":"U","APOAPSIS":"548.117"},{"ARG_OF_PERICENTER":"84.5776","DECAY_DATE":null,"MEAN_ANOMALY":"275.5368","OBJECT_NAME":"STARLINK-1212","MEAN_MOTION_DDOT":"0.0000000000000","ELEMENT_SET_NO":"999","COUNTRY_CODE":"US","EPHEMERIS_TYPE":"0","MEAN_MOTION":"15.06399451","MEAN_MOTION_DOT":"-0.00000683","TIME_SYSTEM":"UTC","RCS_SIZE":"LARGE","NORAD_CAT_ID":"45223","FILE":"3254971","TLE_LINE2":"2 45223  53.0553  40.8652 0001360  84.5776 275.5368 15.06399451104601","REF_FRAME":"TEME","OBJECT_TYPE":"PAYLOAD","EPOCH":"2021-12-29T09:33:11.557152","GP_ID":"192711501","ECCENTRICITY":"0.00013600","PERIAPSIS":"546.273","BSTAR":"-0.00002696500000","CENTER_NAME":"EARTH","REV_AT_EPOCH":"10460","PERIOD":"95.592","MEAN_ELEMENT_THEORY":"SGP4","TLE_LINE1":"1 45223U 20012AX  21363.39805043 -.00000683  00000-0 -26965-4 0  9999","OBJECT_ID":"2020-012AX","RA_OF_ASC_NODE":"40.8652","SITE":"AFETR","LAUNCH_DATE":"2020-02-17","CLASSIFICATION_TYPE":"U","APOAPSIS":"548.157","INCLINATION":"53.0553","SEMIMAJOR_AXIS":"6925.350"},{"OBJECT_NAME":"STARLINK-1214","DECAY_DATE":null,"ARG_OF_PERICENTER":"21.0370","MEAN_ANOMALY":"339.0752","TIME_SYSTEM":"UTC","MEAN_MOTION_DOT":"0.00014645","MEAN_MOTION":"15.76768994","EPHEMERIS_TYPE":"0","NORAD_CAT_ID":"45224","RCS_SIZE":"LARGE","MEAN_MOTION_DDOT":"0.0000000000000","ELEMENT_SET_NO":"999","COUNTRY_CODE":"US","REF_FRAME":"TEME","OBJECT_TYPE":"PAYLOAD","FILE":"3254971","TLE_LINE2":"2 45224  53.0499 307.5940 0002518  21.0370 339.0752 15.76768994105777","PERIAPSIS":"337.912","GP_ID":"192712252","EPOCH":"2021-12-29T05:31:30.830880","ECCENTRICITY":"0.00025180","MEAN_ELEMENT_THEORY":"SGP4","PERIOD":"91.326","REV_AT_EPOCH":"10577","OBJECT_ID":"2020-012AY","TLE_LINE1":"1 45224U 20012AY  21363.23021795  .00014645  00000-0  93148-4 0  9995","BSTAR":"0.00009314800000","CENTER_NAME":"EARTH","LAUNCH_DATE":"2020-02-17","SITE":"AFETR","RA_OF_ASC_NODE":"307.5940","SEMIMAJOR_AXIS":"6717.739","INCLINATION":"53.0499","CLASSIFICATION_TYPE":"U","APOAPSIS":"341.296"},{"CENTER_NAME":"EARTH","BSTAR":"0.00009863900000","REV_AT_EPOCH":"10458","PERIOD":"95.592","MEAN_ELEMENT_THEORY":"SGP4","TLE_LINE1":"1 45225U 20012AZ  21363.61552149  .00001188  00000-0  98639-4 0  9998","OBJECT_ID":"2020-012AZ","RA_OF_ASC_NODE":"39.8685","LAUNCH_DATE":"2020-02-17","SITE":"AFETR","CLASSIFICATION_TYPE":"U","APOAPSIS":"548.090","INCLINATION":"53.0546","SEMIMAJOR_AXIS":"6925.351","ARG_OF_PERICENTER":"83.4280","DECAY_DATE":null,"MEAN_ANOMALY":"276.6853","OBJECT_NAME":"STARLINK-1215","MEAN_MOTION_DDOT":"0.0000000000000","COUNTRY_CODE":"US","ELEMENT_SET_NO":"999","MEAN_MOTION":"15.06399123","EPHEMERIS_TYPE":"0","TIME_SYSTEM":"UTC","MEAN_MOTION_DOT":"0.00001188","RCS_SIZE":"LARGE","NORAD_CAT_ID":"45225","FILE":"3255236","TLE_LINE2":"2 45225  53.0546  39.8685 0001261  83.4280 276.6853 15.06399123104581","REF_FRAME":"TEME","OBJECT_TYPE":"PAYLOAD","GP_ID":"192742038","EPOCH":"2021-12-29T14:46:21.056736","ECCENTRICITY":"0.00012610","PERIAPSIS":"546.343"},{"TLE_LINE1":"1 45226U 20012BA  21363.49020257  .00000074  00000-0  23843-4 0  9993","OBJECT_ID":"2020-012BA","PERIOD":"95.592","REV_AT_EPOCH":"10452","MEAN_ELEMENT_THEORY":"SGP4","BSTAR":"0.00002384300000","CENTER_NAME":"EARTH","SITE":"AFETR","LAUNCH_DATE":"2020-02-17","RA_OF_ASC_NODE":"40.4379","INCLINATION":"53.0556","SEMIMAJOR_AXIS":"6925.363","APOAPSIS":"548.149","CLASSIFICATION_TYPE":"U","OBJECT_NAME":"STARLINK-1217","MEAN_ANOMALY":"278.7389","ARG_OF_PERICENTER":"81.3750","DECAY_DATE":null,"NORAD_CAT_ID":"45226","RCS_SIZE":"LARGE","EPHEMERIS_TYPE":"0","MEAN_MOTION":"15.06395381","MEAN_MOTION_DOT":"0.00000074","TIME_SYSTEM":"UTC","ELEMENT_SET_NO":"999","COUNTRY_CODE":"US","MEAN_MOTION_DDOT":"0.0000000000000","OBJECT_TYPE":"PAYLOAD","REF_FRAME":"TEME","TLE_LINE2":"2 45226  53.0556  40.4379 0001330  81.3750 278.7389 15.06395381104520","FILE":"3254971","PERIAPSIS":"546.307","ECCENTRICITY":"0.00013300","GP_ID":"192711753","EPOCH":"2021-12-29T11:45:53.502048"},{"OBJECT_TYPE":"PAYLOAD","REF_FRAME":"TEME","FILE":"3254971","TLE_LINE2":"2 45227  53.0546  40.9395 0001365  83.3437 276.7707 15.06405142104513","PERIAPSIS":"546.252","ECCENTRICITY":"0.00013650","EPOCH":"2021-12-29T09:06:39.312288","GP_ID":"192712002","OBJECT_NAME":"STARLINK-1221","MEAN_ANOMALY":"276.7707","DECAY_DATE":null,"ARG_OF_PERICENTER":"83.3437","NORAD_CAT_ID":"45227","RCS_SIZE":"LARGE","TIME_SYSTEM":"UTC","MEAN_MOTION_DOT":"0.00000364","EPHEMERIS_TYPE":"0","MEAN_MOTION":"15.06405142","ELEMENT_SET_NO":"999","COUNTRY_CODE":"US","MEAN_MOTION_DDOT":"0.0000000000000","SEMIMAJOR_AXIS":"6925.333","INCLINATION":"53.0546","APOAPSIS":"548.143","CLASSIFICATION_TYPE":"U","OBJECT_ID":"2020-012BB","TLE_LINE1":"1 45227U 20012BB  21363.37962167  .00000364  00000-0  43312-4 0  9991","MEAN_ELEMENT_THEORY":"SGP4","REV_AT_EPOCH":"10451","PERIOD":"95.592","CENTER_NAME":"EARTH","BSTAR":"0.00004331200000","LAUNCH_DATE":"2020-02-17","SITE":"AFETR","RA_OF_ASC_NODE":"40.9395"},{"EPOCH":"2021-12-29T12:23:02.178816","GP_ID":"192712753","ECCENTRICITY":"0.00013180","PERIAPSIS":"546.298","TLE_LINE2":"2 45228  53.0558  40.3180 0001318  88.1017 272.0123 15.06400765104504","FILE":"3254971","REF_FRAME":"TEME","OBJECT_TYPE":"PAYLOAD","MEAN_MOTION_DDOT":"0.0000000000000","ELEMENT_SET_NO":"999","COUNTRY_CODE":"US","EPHEMERIS_TYPE":"0","MEAN_MOTION":"15.06400765","TIME_SYSTEM":"UTC","MEAN_MOTION_DOT":"0.00002344","RCS_SIZE":"LARGE","NORAD_CAT_ID":"45228","ARG_OF_PERICENTER":"88.1017","DECAY_DATE":null,"MEAN_ANOMALY":"272.0123","OBJECT_NAME":"STARLINK-1222","CLASSIFICATION_TYPE":"U","APOAPSIS":"548.124","INCLINATION":"53.0558","SEMIMAJOR_AXIS":"6925.346","RA_OF_ASC_NODE":"40.3180","LAUNCH_DATE":"2020-02-17","SITE":"AFETR","CENTER_NAME":"EARTH","BSTAR":"0.00017618000000","REV_AT_EPOCH":"10450","PERIOD":"95.592","MEAN_ELEMENT_THEORY":"SGP4","TLE_LINE1":"1 45228U 20012BC  21363.51599744  .00002344  00000-0  17618-3 0  9994","OBJECT_ID":"2020-012BC"},{"TLE_LINE1":"1 45229U 20012BD  21363.47914474  .00001044  00000-0  88952-4 0  9997","OBJECT_ID":"2020-012BD","PERIOD":"95.592","REV_AT_EPOCH":"10450","MEAN_ELEMENT_THEORY":"SGP4","BSTAR":"0.00008895200000","CENTER_NAME":"EARTH","LAUNCH_DATE":"2020-02-17","SITE":"AFETR","RA_OF_ASC_NODE":"40.4858","INCLINATION":"53.0566","SEMIMAJOR_AXIS":"6925.363","APOAPSIS":"548.079","CLASSIFICATION_TYPE":"U","OBJECT_NAME":"STARLINK-1226","MEAN_ANOMALY":"289.8468","ARG_OF_PERICENTER":"70.2654","DECAY_DATE":null,"NORAD_CAT_ID":"45229","RCS_SIZE":"LARGE","EPHEMERIS_TYPE":"0","MEAN_MOTION":"15.06395449","MEAN_MOTION_DOT":"0.00001044","TIME_SYSTEM":"UTC","COUNTRY_CODE":"US","ELEMENT_SET_NO":"999","MEAN_MOTION_DDOT":"0.0000000000000","OBJECT_TYPE":"PAYLOAD","REF_FRAME":"TEME","FILE":"3254971","TLE_LINE2":"2 45229  53.0566  40.4858 0001230  70.2654 289.8468 15.06395449104509","PERIAPSIS":"546.376","ECCENTRICITY":"0.00012300","GP_ID":"192712501","EPOCH":"2021-12-29T11:29:58.105536"},{"CLASSIFICATION_TYPE":"U","APOAPSIS":"548.252","INCLINATION":"53.0549","SEMIMAJOR_AXIS":"6925.361","CENTER_NAME":"EARTH","BSTAR":"0.00017456000000","REV_AT_EPOCH":"10462","PERIOD":"95.592","MEAN_ELEMENT_THEORY":"SGP4","TLE_LINE1":"1 45230U 20012BE  21363.47545805  .00002319  00000-0  17456-3 0  9993","OBJECT_ID":"2020-012BE","RA_OF_ASC_NODE":"40.5024","SITE":"AFETR","LAUNCH_DATE":"2020-02-17","FILE":"3254971","TLE_LINE2":"2 45230  53.0549  40.5024 0001481  84.0188 276.0969 15.06395813104623","REF_FRAME":"TEME","OBJECT_TYPE":"PAYLOAD","GP_ID":"192711253","EPOCH":"2021-12-29T11:24:39.575520","ECCENTRICITY":"0.00014810","PERIAPSIS":"546.201","ARG_OF_PERICENTER":"84.0188","DECAY_DATE":null,"MEAN_ANOMALY":"276.0969","OBJECT_NAME":"STARLINK-1227","MEAN_MOTION_DDOT":"0.0000000000000","COUNTRY_CODE":"US","ELEMENT_SET_NO":"999","MEAN_MOTION":"15.06395813","EPHEMERIS_TYPE":"0","TIME_SYSTEM":"UTC","MEAN_MOTION_DOT":"0.00002319","NORAD_CAT_ID":"45230","RCS_SIZE":"LARGE"}];
